OBJECT_NAME,OBJECT_ID,EPOCH,MEAN_MOTION,ECCENTRICITY,INCLINATION,RA_OF_ASC_NODE,ARG_OF_PERICENTER,MEAN_ANOMALY,EPHEMERIS_TYPE,CLASSIFICATION_TYPE,NORAD_CAT_ID,ELEMENT_SET_NO,REV_AT_EPOCH,BSTAR,MEAN_MOTION_DOT,MEAN_MOTION_DDOT
FORMOSAT-3 FM4,2006-011E,2022-06-30T21:37:37.968096,14.29076464,.0066846,72.0051,18.8681,78.8709,281.9934,0,U,29051,999,84833,.90961E-4,.195E-5,0
FORMOSAT-3 FM2,2006-011F,2022-06-30T20:17:21.303744,14.29178262,.0039572,72.0346,95.4082,158.6307,201.6493,0,U,29052,999,84671,.78944E-4,.161E-5,0
ASTRO-F DEB [LENS COVER],2006-005E,2022-06-30T19:03:45.531936,14.61192581,.0011034,98.1279,198.4952,89.9637,270.2828,0,U,29054,999,87059,.93074E-4,.412E-5,0
ASTRA 1KR,2006-012A,2022-07-01T02:09:42.683904,1.00273333,.0001735,0.0319,278.3444,235.6867,176.7144,0,U,29055,999,5923,0,.128E-5,0
ATLAS 5 CENTAUR R/B,2006-012B,2022-06-30T11:20:42.684864,1.96350328,.53811,24.6972,351.9376,336.7183,241.4087,0,U,29056,999,11614,0,.12E-6,0
OPS 4682 DEB,1965-027BJ,2022-07-01T04:14:14.594784,12.93572930,.0032013,90.2634,333.9885,58.2671,116.8544,0,U,29059,999,96847,-.98449E-4,-.2E-6,0
OPS 4682 DEB,1965-027BK,2022-06-30T05:30:39.724416,12.94190698,.0030636,90.2621,337.6717,40.7557,134.2310,0,U,29060,999,27678,.84323E-3,.241E-5,0
OPS 4682 DEB,1965-027BL,2022-06-30T21:10:53.647104,12.93975532,.0032769,90.2551,344.9201,51.2675,114.5414,0,U,29061,999,4117,.23037E-3,.71E-6,0
SL-14 DEB,1978-100AX,2022-06-30T18:40:28.104384,11.98711121,.0017419,82.5392,109.7390,281.0661,109.7178,0,U,29065,999,40573,.58544E-3,.55E-6,0
METEOR 2-17 DEB,1988-005M,2022-06-29T18:13:46.724448,13.97847464,.0036571,82.5269,339.5757,359.0122,1.0967,0,U,29067,999,44764,.56468E-3,.818E-5,0
DMSP 5D-2 F11 DEB,1991-082BP,2022-06-30T20:43:20.952480,14.72528263,.0039652,98.8458,36.4562,107.7473,252.8066,0,U,29068,999,43451,.17876E-2,.11456E-3,0
DMSP 5D-2 F11 DEB,1991-082BQ,2022-06-30T12:45:33.130080,14.21646832,.0081759,98.9999,194.7599,271.9205,239.6615,0,U,29069,999,90972,.56204E-3,.1229E-4,0
DMSP 5D-2 F11 DEB,1991-082BR,2022-06-29T22:59:22.018272,14.36589323,.0015134,98.6535,241.2916,136.0662,224.1730,0,U,29070,999,92220,.61719E-3,.1772E-4,0
DMSP 5D-2 F11 DEB,1991-082BS,2022-06-29T21:12:05.742720,14.17847449,.009722,99.0315,193.4458,54.9022,306.1220,0,U,29071,999,92523,.72615E-3,.1508E-4,0
DMSP 5D-2 F11 DEB,1991-082BT,2022-06-29T20:09:31.124448,14.79847710,.0043117,98.8943,45.6972,129.0155,231.4905,0,U,29072,999,92937,.2362E-2,.18065E-3,0
DMSP 5D-2 F11 DEB,1991-082BU,2022-06-26T23:40:45.757344,14.41525856,.0013426,98.5984,240.3505,44.0327,316.1929,0,U,29073,999,47130,.11117E-2,.3572E-4,0
DMSP 5D-2 F11 DEB,1991-082BV,2022-06-30T10:02:50.663616,14.32612672,.0012189,98.6715,234.5160,177.2985,182.8267,0,U,29074,999,92491,.47284E-3,.1241E-4,0
DMSP 5D-2 F11 DEB,1991-082BY,2022-06-30T07:16:23.863008,14.12837957,.0104144,98.6902,310.8221,98.3450,262.9546,0,U,29077,999,91952,.92899E-3,.1777E-4,0
DMSP 5D-2 F11 DEB,1991-082BZ,2022-07-01T02:23:59.754624,14.28504735,.0019324,98.7623,234.7129,315.5295,44.4334,0,U,29078,999,91864,.44429E-3,.107E-4,0
EROS B,2006-014A,2022-07-01T03:51:06.079392,15.24423628,.000325,97.3848,302.7042,242.4754,239.4657,0,U,29079,999,89846,.30716E-3,.7465E-4,0
DMSP 5D-2 F11 DEB,1991-082CB,2022-06-30T17:34:10.511904,14.80873378,.0006871,98.6283,1.7495,334.6014,25.4858,0,U,29082,999,92864,.1381E-2,.10624E-3,0
DMSP 5D-2 F11 DEB,1991-082CC,2022-06-30T16:42:36.851040,14.46838901,.00091,98.6095,264.3185,288.7727,71.2477,0,U,29083,999,92338,.7276E-3,.2593E-4,0
DMSP 5D-2 F11 DEB,1991-082CF,2022-06-30T07:13:35.026176,14.60663857,.001266,98.6409,306.2805,148.7939,238.3422,0,U,29086,999,90022,.12045E-2,.5823E-4,0
DMSP 5D-2 F11 DEB,1991-082CG,2022-07-01T04:17:38.433984,14.43890289,.0007252,98.6504,262.5683,347.2577,12.8428,0,U,29087,999,94323,.67485E-3,.2257E-4,0
DMSP 5D-2 F11 DEB,1991-082CH,2022-06-30T21:20:26.913696,14.41310936,.0010469,98.5929,245.2386,28.5747,331.6014,0,U,29088,999,47243,.60314E-3,.1907E-4,0
DMSP 5D-2 F11 DEB,1991-082CK,2022-06-30T14:33:43.791840,14.41650774,.0017364,98.6926,236.3898,73.0390,287.2700,0,U,29090,999,94091,.6188E-3,.1974E-4,0
RSS-1 (YAOGAN 1),2006-015A,2022-06-30T19:57:12.236832,14.83443652,.0001496,97.8721,209.5973,90.9886,269.1499,0,U,29092,999,87492,.30665E-4,.199E-5,0
CZ-4B R/B,2006-015B,2022-06-30T14:12:54.723456,15.59600798,.004013,97.5988,42.0660,133.5961,226.8637,0,U,29093,999,90160,.18023E-3,.14788E-3,0
SL-16 DEB,1992-093JQ,2022-06-30T07:17:10.102560,14.24798704,.0136729,71.2911,55.1523,191.3557,168.4482,0,U,29094,999,2249,.77184E-3,.1938E-4,0
SL-16 DEB,1993-016AK,2022-06-30T13:52:44.928192,15.05875308,.0032251,70.9082,293.2523,233.0479,126.7736,0,U,29096,999,48067,.17985E-2,.26484E-3,0
