FORMOSAT-3 FM4          
1 29051U 06011E   22181.90113389  .00000195  00000+0  90961-4 0  9996
2 29051  72.0051  18.8681 0066846  78.8709 281.9934 14.29076464848330
FORMOSAT-3 FM2          
1 29052U 06011F   22181.84538546  .00000161  00000+0  78944-4 0  9996
2 29052  72.0346  95.4082 0039572 158.6307 201.6493 14.29178262846719
ASTRO-F DEB [LENS COVER]
1 29054U 06005E   22181.79427699  .00000412  00000+0  93074-4 0  9991
2 29054  98.1279 198.4952 0011034  89.9637 270.2828 14.61192581870593
ASTRA 1KR               
1 29055U 06012A   22182.09007736  .00000128  00000+0  00000+0 0  9996
2 29055   0.0319 278.3444 0001735 235.6867 176.7144  1.00273333 59232
ATLAS 5 CENTAUR R/B     
1 29056U 06012B   22181.47271626  .00000012  00000+0  00000+0 0  9991
2 29056  24.6972 351.9376 5381100 336.7183 241.4087  1.96350328116143
OPS 4682 DEB            
1 29059U 65027BJ  22182.17655781 -.00000020  00000+0 -98449-4 0  9991
2 29059  90.2634 333.9885 0032013  58.2671 116.8544 12.93572930968472
OPS 4682 DEB            
1 29060U 65027BK  22181.22962644  .00000241  00000+0  84323-3 0  9995
2 29060  90.2621 337.6717 0030636  40.7557 134.2310 12.94190698276782
OPS 4682 DEB            
1 29061U 65027BL  22181.88256536  .00000071  00000+0  23037-3 0  9990
2 29061  90.2551 344.9201 0032769  51.2675 114.5414 12.93975532 41177
SL-14 DEB               
1 29065U 78100AX  22181.77810306  .00000055  00000+0  58544-3 0  9992
2 29065  82.5392 109.7390 0017419 281.0661 109.7178 11.98711121405732
METEOR 2-17 DEB         
1 29067U 88005M   22180.75956857  .00000818  00000+0  56468-3 0  9998
2 29067  82.5269 339.5757 0036571 359.0122   1.0967 13.97847464447642
DMSP 5D-2 F11 DEB       
1 29068U 91082BP  22181.86343695  .00011456  00000+0  17876-2 0  9990
2 29068  98.8458  36.4562 0039652 107.7473 252.8066 14.72528263434515
DMSP 5D-2 F11 DEB       
1 29069U 91082BQ  22181.53163345  .00001229  00000+0  56204-3 0  9993
2 29069  98.9999 194.7599 0081759 271.9205 239.6615 14.21646832909727
DMSP 5D-2 F11 DEB       
1 29070U 91082BR  22180.95789373  .00001772  00000+0  61719-3 0  9995
2 29070  98.6535 241.2916 0015134 136.0662 224.1730 14.36589323922207
DMSP 5D-2 F11 DEB       
1 29071U 91082BS  22180.88339980  .00001508  00000+0  72615-3 0  9997
2 29071  99.0315 193.4458 0097220  54.9022 306.1220 14.17847449925238
DMSP 5D-2 F11 DEB       
1 29072U 91082BT  22180.83994357  .00018065  00000+0  23620-2 0  9995
2 29072  98.8943  45.6972 0043117 129.0155 231.4905 14.79847710929377
DMSP 5D-2 F11 DEB       
1 29073U 91082BU  22177.98664071  .00003572  00000+0  11117-2 0  9990
2 29073  98.5984 240.3505 0013426  44.0327 316.1929 14.41525856471308
DMSP 5D-2 F11 DEB       
1 29074U 91082BV  22181.41864194  .00001241  00000+0  47284-3 0  9998
2 29074  98.6715 234.5160 0012189 177.2985 182.8267 14.32612672924914
DMSP 5D-2 F11 DEB       
1 29077U 91082BY  22181.30305397  .00001777  00000+0  92899-3 0  9990
2 29077  98.6902 310.8221 0104144  98.3450 262.9546 14.12837957919528
DMSP 5D-2 F11 DEB       
1 29078U 91082BZ  22182.09999716  .00001070  00000+0  44429-3 0  9994
2 29078  98.7623 234.7129 0019324 315.5295  44.4334 14.28504735918649
EROS B                  
1 29079U 06014A   22182.16048703  .00007465  00000+0  30716-3 0  9993
2 29079  97.3848 302.7042 0003250 242.4754 239.4657 15.24423628898462
DMSP 5D-2 F11 DEB       
1 29082U 91082CB  22181.73206611  .00010624  00000+0  13810-2 0  9998
2 29082  98.6283   1.7495 0006871 334.6014  25.4858 14.80873378928648
DMSP 5D-2 F11 DEB       
1 29083U 91082CC  22181.69625985  .00002593  00000+0  72760-3 0  9999
2 29083  98.6095 264.3185 0009100 288.7727  71.2477 14.46838901923388
DMSP 5D-2 F11 DEB       
1 29086U 91082CF  22181.30109984  .00005823  00000+0  12045-2 0  9994
2 29086  98.6409 306.2805 0012660 148.7939 238.3422 14.60663857900226
DMSP 5D-2 F11 DEB       
1 29087U 91082CG  22182.17891706  .00002257  00000+0  67485-3 0  9998
2 29087  98.6504 262.5683 0007252 347.2577  12.8428 14.43890289943237
DMSP 5D-2 F11 DEB       
1 29088U 91082CH  22181.88920039  .00001907  00000+0  60314-3 0  9993
2 29088  98.5929 245.2386 0010469  28.5747 331.6014 14.41310936472434
DMSP 5D-2 F11 DEB       
1 29090U 91082CK  22181.60675685  .00001974  00000+0  61880-3 0  9993
2 29090  98.6926 236.3898 0017364  73.0390 287.2700 14.41650774940912
RSS-1 (YAOGAN 1)        
1 29092U 06015A   22181.83139163  .00000199  00000+0  30665-4 0  9994
2 29092  97.8721 209.5973 0001496  90.9886 269.1499 14.83443652874923
CZ-4B R/B               
1 29093U 06015B   22181.59230004  .00014788  00000+0  18023-3 0  9996
2 29093  97.5988  42.0660 0040130 133.5961 226.8637 15.59600798901605
SL-16 DEB               
1 29094U 92093JQ  22181.30358915  .00001938  00000+0  77184-3 0  9995
2 29094  71.2911  55.1523 0136729 191.3557 168.4482 14.24798704 22493
SL-16 DEB               
1 29096U 93016AK  22181.57829778  .00026484  00000+0  17985-2 0  9997
2 29096  70.9082 293.2523 0032251 233.0479 126.7736 15.05875308480670
